IRIDIUM 116             
1 43072U 17083C   25079.71961632  .00000727  00000+0  25237-3 0  9990
2 43072  86.4012 151.5806 0001970  99.7661 260.3758 14.34221285379170
IRIDIUM 130             
1 43073U 17083D   25079.61813540  .00000644  00000+0  22286-3 0  9993
2 43073  86.4021 151.8538 0001907  92.9664 267.1750 14.34218754379101
IRIDIUM 151             
1 43074U 17083E   25079.24392200  .00000465  00000+0  15899-3 0  9991
2 43074  86.4017 151.8267 0002180 105.0513 255.0924 14.34219883379078
IRIDIUM 134             
1 43075U 17083F   25080.18896659  .00000764  00000+0  26577-3 0  9991
2 43075  86.4016 151.4343 0002040  90.3493 269.7936 14.34222486379176
IRIDIUM 137             
1 43076U 17083G   25079.71327426  .00000530  00000+0  18210-3 0  9996
2 43076  86.4019 151.7160 0001845 110.9250 249.2144 14.34219160379171
IRIDIUM 141             
1 43077U 17083H   25079.56739452  .00000415  00000+0  14126-3 0  9990
2 43077  86.4012 151.6341 0002540  94.2292 265.9194 14.34222968379156
IRIDIUM 153             
1 43078U 17083J   25080.14749342  .00000304  00000+0  10150-3 0  9996
2 43078  86.3941 119.8912 0002740  89.4954 270.6556 14.34218791380347
IRIDIUM 131             
1 43079U 17083K   25079.20587182 -.00000101  00000+0 -43050-4 0  9997
2 43079  86.4020 151.9398 0002319 100.5353 259.6104 14.34213673379036
